OBJECT_NAME,OBJECT_ID,EPOCH,MEAN_MOTION,ECCENTRICITY,INCLINATION,RA_OF_ASC_NODE,ARG_OF_PERICENTER,MEAN_ANOMALY,EPHEMERIS_TYPE,CLASSIFICATION_TYPE,NORAD_CAT_ID,ELEMENT_SET_NO,REV_AT_EPOCH,BSTAR,MEAN_MOTION_DOT,MEAN_MOTION_DDOT
CUBEBUG-2 (LO-74),2013-066AA,2026-06-05T19:25:13.636704,14.93668030,.00594347,97.8908,105.7402,65.9901,294.7524,0,U,39440,999,67529,.51354385E-3,.556E-4,0
FUNCUBE-1 (AO-73),2013-066AE,2026-06-07T04:17:49.796448,15.09372001,.00346731,97.8278,129.4171,235.9808,123.8126,0,U,39444,999,67815,.47302019E-3,.7594E-4,0
UWE-3,2013-066AG,2026-06-06T15:42:38.626272,14.96941234,.00490307,97.8693,113.6587,356.7161,3.3731,0,U,39446,999,67600,.43621535E-3,.5074E-4,0
UNISAT-6,2014-033C,2026-06-07T04:22:40.327680,14.88192677,.0046469,97.7873,311.0720,101.3113,259.3330,0,U,40012,999,64467,.41302305E-3,.3829E-4,0
DUCHIFAT-1,2014-033M,2026-06-06T15:41:32.123328,15.62532065,.00045265,98.0457,215.3530,133.6949,226.4683,0,U,40021,999,65410,.11800985E-2,.106168E-2,0
QB50P1,2014-033R,2026-06-07T06:19:40.705248,15.18108574,.00070816,98.0971,168.7150,255.6784,104.3662,0,U,40025,999,65152,.43536234E-3,.8812E-4,0
LILACSAT-2,2015-049K,2026-06-07T06:34:33.568032,15.51117189,.0005304,97.4658,194.7406,293.2449,66.8244,0,U,40908,999,59421,.30516732E-3,.17716E-3,0
FOX-1A (AO-85),2015-058D,2026-06-06T14:53:26.022048,14.90916620,.01298912,64.7764,311.8208,60.7292,300.6731,0,U,40967,999,11199,.30157666E-3,.3329E-4,0
CAS-2T & KS-1Q,2016-066G,2026-06-06T15:26:38.203008,14.44659406,.03424109,98.3816,233.5001,161.3823,200.0263,0,U,41847,999,50327,.27751568E-3,.1927E-4,0
RADFXSAT (FOX-1B),2017-073E,2026-06-06T14:58:24.312000,15.12539966,.01511744,97.4716,25.0553,5.8791,354.4168,0,U,43017,999,46379,.50849039E-3,.11671E-3,0
DIWATA-2B,2018-084H,2026-06-07T05:35:52.181376,15.00403779,.00119489,98.1166,354.0102,202.9859,157.0831,0,U,43678,999,41472,.20546033E-3,.252E-4,0
ES'HAIL 2,2018-090A,2026-06-07T04:59:41.854848,1.00273643,.00019286,0.0112,38.9909,72.2005,245.1501,0,U,43700,999,2757,0,.158E-5,0
FOX-1CLIFF (AO-95),2018-099N,2026-06-06T03:09:03.946752,15.26474352,.00091754,97.4387,217.4205,36.3927,323.7934,0,U,43770,999,41153,.62214936E-3,.16192E-3,0
ITASAT,2018-099AE,2026-06-06T22:37:37.422336,15.18928308,.00132032,97.4030,209.6599,35.5041,324.7070,0,U,43786,999,41135,.39461316E-3,.8194E-4,0
JY1SAT (JO-97),2018-099AX,2026-06-06T23:33:28.238976,15.33329826,.00042001,97.4133,220.7824,312.9270,47.1619,0,U,43803,999,41206,.61150239E-3,.19649E-3,0
UWE-4,2018-111E,2026-06-06T14:22:20.601984,15.45454015,.000755,97.5857,85.5068,22.5436,337.6143,0,U,43880,999,40914,.86289E-3,.41427E-3,0
TIANYAN 01,2019-093C,2026-06-07T06:49:29.497152,14.86503021,.00148332,97.7528,230.7576,116.4033,243.8707,0,U,44881,999,34994,.12976944E-3,.1097E-4,0
RS-44 & BREEZE-KM R/B,2019-096E,2026-06-06T23:57:02.716704,12.79748571,.02177161,82.5218,346.4772,167.9357,192.7080,0,U,44909,999,30104,.793164E-6,.12E-6,0
SALSAT,2020-068K,2026-06-06T17:52:38.014752,15.29647918,.00090499,97.8851,160.1753,349.8452,10.2602,0,U,46495,999,31376,.35497906E-3,.10129E-3,0
XW-3 (CAS-9),2021-131B,2026-06-07T06:23:43.416672,14.41348740,.00051696,98.4974,250.7100,119.0560,241.1148,0,U,50466,999,23368,.1986671E-3,.599E-5,0
GREENCUBE (IO-117),2022-080E,2026-06-01T11:09:37.753056,6.42583280,.00088692,70.1435,303.7143,293.3663,66.6064,0,U,53109,999,9105,0,-.3E-7,0
UMKA 1 (RS40S),2023-091G,2026-06-06T21:28:58.781856,15.20699091,.00137222,97.5051,216.6327,150.0105,210.1919,0,U,57172,999,16244,.32949659E-3,.7192E-4,0
CUBESX-HSE 3 (RS42S),2023-091N,2026-06-06T23:28:57.779328,15.30955946,.00120906,97.5091,223.4386,126.0896,234.1466,0,U,57178,999,16286,.52018226E-3,.15529E-3,0
MONITOR-3 (RS58S),2023-091Q,2026-06-06T23:32:02.565600,15.27635126,.00129837,97.5084,221.3533,132.3816,227.8524,0,U,57180,999,16273,.4725887E-3,.12731E-3,0
MONITOR-4 (RS57S),2023-091S,2026-06-06T23:02:44.463840,15.27730245,.00129562,97.5077,221.3034,132.7408,227.4924,0,U,57182,999,16273,.42349435E-3,.11431E-3,0
MONITOR-2 (RS39S),2023-091U,2026-06-06T23:15:58.462560,15.18814848,.00122761,97.5074,216.3190,142.5661,217.6431,0,U,57184,999,16240,.29429382E-3,.6069E-4,0
SVYATOBOR 1 (RS60S),2023-091X,2026-06-06T23:09:03.795264,15.26440940,.00108434,97.5089,221.7264,125.0692,235.1565,0,U,57187,999,16275,.38748506E-3,.10042E-3,0
VIZARD-METEO (RS38S),2023-091Z,2026-06-06T23:36:50.265504,15.35699957,.00087408,97.5090,227.2675,107.8954,252.3243,0,U,57189,999,16312,.55122688E-3,.19103E-3,0
POLYTECH-UNIVERSE 3 (RS46S),2023-091AB,2026-06-06T23:57:04.982112,15.19014607,.00161681,97.5049,215.8519,159.6766,200.5115,0,U,57191,999,16240,.26683613E-3,.5535E-4,0
UTMN 2 (RS27S),2023-091AP,2026-06-07T00:02:21.272640,15.31800053,.00094662,97.5087,225.0835,114.0102,246.2131,0,U,57203,999,16298,.50178842E-3,.15362E-3,0
